{"type": "FeatureCollection", "features": [ {"type": "Feature", "properties": {"norad_id": 43010, "name": "FENGYUN 3D", "group": "weather", "lat": -2.2692078343792894, "lon": 129.2195989233487, "alt_km": 829.0972335946399, "timestamp": "2025-12-09T07:41:32.844947+00:00", "meta": {"OBJECT_NAME": "FENGYUN 3D", "OBJECT_ID": "2017-072A", "EPOCH": "2025-12-08T22:22:46.887168", "MEAN_MOTION": 14.19681226, "ECCENTRICITY": 7.525e-05, "INCLINATION": 98.989, "RA_OF_ASC_NODE": 309.1852, "ARG_OF_PERICENTER": 195.0305, "MEAN_ANOMALY": 165.0848, "EPHEMERIS_TYPE": 0, "CLASSIFICATION_TYPE": "U", "NORAD_CAT_ID": 43010, "ELEMENT_SET_NO": 999, "REV_AT_EPOCH": 41799, "BSTAR": -5.799395e-05, "MEAN_MOTION_DOT": -1.69e-06, "MEAN_MOTION_DDOT": 0}, "tle": {"line1": "1 43010U 17072A   25342.93248712 -.00000169  00000+0 -57994-4 0  9992", "line2": "2 43010  98.9890 309.1852 0000752 195.0305 165.0848 14.19681226417990"}}, "geometry": {"type": "Point", "coordinates": [129.2195989233487, -2.2692078343792894]}}, {"type": "Feature", "properties": {"norad_id": 43013, "name": "NOAA 20 (JPSS-1)", "group": "weather", "lat": -23.31020188949828, "lon": -76.53612772328721, "alt_km": 833.0140618132091, "timestamp": "2025-12-09T07:41:32.844959+00:00", "meta": {"OBJECT_NAME": "NOAA 20 (JPSS-1)", "OBJECT_ID": "2017-073A", "EPOCH": "2025-12-08T21:39:12.414528", "MEAN_MOTION": 14.19523972, "ECCENTRICITY": 0.00021341, "INCLINATION": 98.7594, "RA_OF_ASC_NODE": 279.2411, "ARG_OF_PERICENTER": 92.9738, "MEAN_ANOMALY": 267.1683, "EPHEMERIS_TYPE": 0, "CLASSIFICATION_TYPE": "U", "NORAD_CAT_ID": 43013, "ELEMENT_SET_NO": 999, "REV_AT_EPOCH": 41747, "BSTAR": 9.262618e-05, "MEAN_MOTION_DOT": 1.51e-06, "MEAN_MOTION_DDOT": 0}, "tle": {"line1": "1 43013U 17073A   25342.90222702  .00000151  00000+0  92626-4 0  9994", "line2": "2 43013  98.7594 279.2411 0002134  92.9738 267.1683 14.19523972417478"}}, "geometry": {"type": "Point", "coordinates": [-76.53612772328721, -23.31020188949828]}}, {"type": "Feature", "properties": {"norad_id": 43226, "name": "GOES 17", "group": "weather", "lat": 0.13521180029674926, "lon": 104.193514091391, "alt_km": 35800.36007784945, "timestamp": "2025-12-09T07:41:32.844971+00:00", "meta": {"OBJECT_NAME": "GOES 17", "OBJECT_ID": "2018-022A", "EPOCH": "2025-12-08T21:44:17.246688", "MEAN_MOTION": 1.00271697, "ECCENTRICITY": 0.0003414, "INCLINATION": 0.45, "RA_OF_ASC_NODE": 89.1741, "ARG_OF_PERICENTER": 185.5157, "MEAN_ANOMALY": 39.7902, "EPHEMERIS_TYPE": 0, "CLASSIFICATION_TYPE": "U", "NORAD_CAT_ID": 43226, "ELEMENT_SET_NO": 999, "REV_AT_EPOCH": 2851, "BSTAR": 0, "MEAN_MOTION_DOT": -1.8e-06, "MEAN_MOTION_DDOT": 0}, "tle": {"line1": "1 43226U 18022A   25342.90575517 -.00000180  00000+0  00000+0 0  9993", "line2": "2 43226   0.4500  89.1741 0003414 185.5157  39.7902  1.00271697 28511"}}, "geometry": {"type": "Point", "coordinates": [104.193514091391, 0.13521180029674926]}}, {"type": "Feature", "properties": {"norad_id": 43491, "name": "FENGYUN 2H", "group": "weather", "lat": -0.5366526590480246, "lon": -86.9345278023061, "alt_km": 35775.188290466474, "timestamp": "2025-12-09T07:41:32.844984+00:00", "meta": {"OBJECT_NAME": "FENGYUN 2H", "OBJECT_ID": "2018-050A", "EPOCH": "2025-12-08T22:32:27.631680", "MEAN_MOTION": 1.00271071, "ECCENTRICITY": 0.00029609, "INCLINATION": 2.5404, "RA_OF_ASC_NODE": 81.358, "ARG_OF_PERICENTER": 164.729, "MEAN_ANOMALY": 249.3275, "EPHEMERIS_TYPE": 0, "CLASSIFICATION_TYPE": "U", "NORAD_CAT_ID": 43491, "ELEMENT_SET_NO": 999, "REV_AT_EPOCH": 2753, "BSTAR": 0, "MEAN_MOTION_DOT": -1.28e-06, "MEAN_MOTION_DDOT": 0}, "tle": {"line1": "1 43491U 18050A   25342.93920870 -.00000128  00000+0  00000+0 0  9999", "line2": "2 43491   2.5404  81.3580 0002960 164.7290 249.3275  1.00271071 27537"}}, "geometry": {"type": "Point", "coordinates": [-86.9345278023061, -0.5366526590480246]}}, {"type": "Feature", "properties": {"norad_id": 43689, "name": "METOP-C", "group": "weather", "lat": 80.67151407871252, "lon": -70.20059227425826, "alt_km": 812.0615534602211, "timestamp": "2025-12-09T07:41:32.844995+00:00", "meta": {"OBJECT_NAME": "METOP-C", "OBJECT_ID": "2018-087A", "EPOCH": "2025-12-08T22:48:30.466368", "MEAN_MOTION": 14.21509484, "ECCENTRICITY": 0.00014935, "INCLINATION": 98.6934, "RA_OF_ASC_NODE": 40.7779, "ARG_OF_PERICENTER": 48.7274, "MEAN_ANOMALY": 311.4032, "EPHEMERIS_TYPE": 0, "CLASSIFICATION_TYPE": "U", "NORAD_CAT_ID": 43689, "ELEMENT_SET_NO": 999, "REV_AT_EPOCH": 36780, "BSTAR": 0.00011956238, "MEAN_MOTION_DOT": 2.18e-06, "MEAN_MOTION_DDOT": 0}, "tle": {"line1": "1 43689U 18087A   25342.95035262  .00000218  00000+0  11956-3 0  9997", "line2": "2 43689  98.6934  40.7779 0001493  48.7274 311.4032 14.21509484367800"}}, "geometry": {"type": "Point", "coordinates": [-70.20059227425826, 80.67151407871252]}}, {"type": "Feature", "properties": {"norad_id": 43823, "name": "GEO-KOMPSAT-2A", "group": "weather", "lat": -0.03730291627599757, "lon": -38.03343648210158, "alt_km": 35786.85509136002, "timestamp": "2025-12-09T07:41:32.845007+00:00", "meta": {"OBJECT_NAME": "GEO-KOMPSAT-2A", "OBJECT_ID": "2018-100A", "EPOCH": "2025-12-08T09:04:40.751616", "MEAN_MOTION": 1.00270893, "ECCENTRICITY": 1.774e-05, "INCLINATION": 0.0576, "RA_OF_ASC_NODE": 113.8278, "ARG_OF_PERICENTER": 87.1447, "MEAN_ANOMALY": 140.8536, "EPHEMERIS_TYPE": 0, "CLASSIFICATION_TYPE": "U", "NORAD_CAT_ID": 43823, "ELEMENT_SET_NO": 999, "REV_AT_EPOCH": 2571, "BSTAR": 0, "MEAN_MOTION_DOT": -3.41e-06, "MEAN_MOTION_DDOT": 0}, "tle": {"line1": "1 43823U 18100A   25342.37824944 -.00000341  00000+0  00000+0 0  9994", "line2": "2 43823   0.0576 113.8278 0000177  87.1447 140.8536  1.00270893 25718"}}, "geometry": {"type": "Point", "coordinates": [-38.03343648210158, -0.03730291627599757]}}, {"type": "Feature", "properties": {"norad_id": 44387, "name": "METEOR-M2 2", "group": "weather", "lat": 46.20703041520796, "lon": 152.41005136739903, "alt_km": 806.0709398945337, "timestamp": "2025-12-09T07:41:32.845018+00:00", "meta": {"OBJECT_NAME": "METEOR-M2 2", "OBJECT_ID": "2019-038A", "EPOCH": "2025-12-08T22:38:24.702144", "MEAN_MOTION": 14.24288366, "ECCENTRICITY": 0.00011045, "INCLINATION": 98.8967, "RA_OF_ASC_NODE": 322.6252, "ARG_OF_PERICENTER": 156.1361, "MEAN_ANOMALY": 203.9868, "EPHEMERIS_TYPE": 0, "CLASSIFICATION_TYPE": "U", "NORAD_CAT_ID": 44387, "ELEMENT_SET_NO": 999, "REV_AT_EPOCH": 33421, "BSTAR": 6.5264535e-05, "MEAN_MOTION_DOT": 1.05e-06, "MEAN_MOTION_DDOT": 0}, "tle": {"line1": "1 44387U 19038A   25342.94334146  .00000105  00000+0  65265-4 0  9990", "line2": "2 44387  98.8967 322.6252 0001104 156.1361 203.9868 14.24288366334219"}}, "geometry": {"type": "Point", "coordinates": [152.41005136739903, 46.20703041520796]}}, {"type": "Feature", "properties": {"norad_id": 47719, "name": "ARKTIKA-M 1", "group": "weather", "lat": 63.18859520845143, "lon": 174.45187992437906, "alt_km": 39258.91688638885, "timestamp": "2025-12-09T07:41:32.845041+00:00", "meta": {"OBJECT_NAME": "ARKTIKA-M 1", "OBJECT_ID": "2021-016A", "EPOCH": "2025-12-01T02:41:41.634816", "MEAN_MOTION": 2.00613156, "ECCENTRICITY": 0.71974708, "INCLINATION": 63.1756, "RA_OF_ASC_NODE": 85.6045, "ARG_OF_PERICENTER": 269.084, "MEAN_ANOMALY": 15.7076, "EPHEMERIS_TYPE": 0, "CLASSIFICATION_TYPE": "U", "NORAD_CAT_ID": 47719, "ELEMENT_SET_NO": 999, "REV_AT_EPOCH": 3481, "BSTAR": 0, "MEAN_MOTION_DOT": -1.2e-07, "MEAN_MOTION_DDOT": 0}, "tle": {"line1": "1 47719U 21016A   25335.11228744 -.00000012  00000+0  00000+0 0  9997", "line2": "2 47719  63.1756  85.6045 7197470 269.0840  15.7076  2.00613156 34816"}}, "geometry": {"type": "Point", "coordinates": [174.45187992437906, 63.18859520845143]}}, {"type": "Feature", "properties": {"norad_id": 49008, "name": "FENGYUN 3E", "group": "weather", "lat": 32.930154070806, "lon": 169.60457825923677, "alt_km": 824.0786309753676, "timestamp": "2025-12-09T07:41:32.845056+00:00", "meta": {"OBJECT_NAME": "FENGYUN 3E", "OBJECT_ID": "2021-062A", "EPOCH": "2025-12-09T00:14:22.512192", "MEAN_MOTION": 14.19877852, "ECCENTRICITY": 6.106e-05, "INCLINATION": 98.7471, "RA_OF_ASC_NODE": 343.5749, "ARG_OF_PERICENTER": 294.211, "MEAN_ANOMALY": 65.9002, "EPHEMERIS_TYPE": 0, "CLASSIFICATION_TYPE": "U", "NORAD_CAT_ID": 49008, "ELEMENT_SET_NO": 999, "REV_AT_EPOCH": 22959, "BSTAR": -0.00011244259, "MEAN_MOTION_DOT": -2.83e-06, "MEAN_MOTION_DDOT": 0}, "tle": {"line1": "1 49008U 21062A   25343.00998278 -.00000283  00000+0 -11244-3 0  9991", "line2": "2 49008  98.7471 343.5749 0000610 294.2110  65.9002 14.19877852229591"}}, "geometry": {"type": "Point", "coordinates": [169.60457825923677, 32.930154070806]}}, {"type": "Feature", "properties": {"norad_id": 51850, "name": "GOES 18", "group": "weather", "lat": 0.0041817116064176325, "lon": 56.702547988910574, "alt_km": 35787.79253881344, "timestamp": "2025-12-09T07:41:32.845068+00:00", "meta": {"OBJECT_NAME": "GOES 18", "OBJECT_ID": "2022-021A", "EPOCH": "2025-12-08T18:05:20.073984", "MEAN_MOTION": 1.00270752, "ECCENTRICITY": 7.187e-05, "INCLINATION": 0.0115, "RA_OF_ASC_NODE": 94.7936, "ARG_OF_PERICENTER": 202.9599, "MEAN_ANOMALY": 274.3353, "EPHEMERIS_TYPE": 0, "CLASSIFICATION_TYPE": "U", "NORAD_CAT_ID": 51850, "ELEMENT_SET_NO": 999, "REV_AT_EPOCH": 468, "BSTAR": 0, "MEAN_MOTION_DOT": 9.9e-07, "MEAN_MOTION_DDOT": 0}, "tle": {"line1": "1 51850U 22021A   25342.75370456  .00000099  00000+0  00000+0 0  9995", "line2": "2 51850   0.0115  94.7936 0000718 202.9599 274.3353  1.00270752  4687"}}, "geometry": {"type": "Point", "coordinates": [56.702547988910574, 0.0041817116064176325]}}]}